{
  "type": "FeatureCollection",
  "name": "JiangchengUniversity_R7_SOLVE_03_WestAcademic",
  "crs": {
    "type": "name",
    "properties": {
      "name": "LOCAL_XZ_METERS"
    }
  },
  "features": [
    {
      "type": "Feature",
      "properties": {
        "id": "CHE-01",
        "name": "化工A楼",
        "clusterID": "G-W01-CHE-SAF",
        "x": -1200,
        "y": 109,
        "z": -195,
        "rotationY": 90,
        "mainEntranceFacing": "东",
        "statusAfter": "R7_SOLVED_CANDIDATE_PENDING_FULL_FREEZE"
      },
      "geometry": {
        "type": "Polygon",
        "coordinates": [
          [
            [
              -1182,
              -246
            ],
            [
              -1182,
              -144
            ],
            [
              -1218,
              -144
            ],
            [
              -1218,
              -246
            ],
            [
              -1182,
              -246
            ]
          ]
        ]
      }
    },
    {
      "type": "Feature",
      "properties": {
        "id": "CHE-02",
        "name": "化工B楼",
        "clusterID": "G-W01-CHE-SAF",
        "x": -1200,
        "y": 109,
        "z": -70,
        "rotationY": 90,
        "mainEntranceFacing": "东",
        "statusAfter": "R7_SOLVED_CANDIDATE_PENDING_FULL_FREEZE"
      },
      "geometry": {
        "type": "Polygon",
        "coordinates": [
          [
            [
              -1182,
              -116
            ],
            [
              -1182,
              -24
            ],
            [
              -1218,
              -24
            ],
            [
              -1218,
              -116
            ],
            [
              -1182,
              -116
            ]
          ]
        ]
      }
    },
    {
      "type": "Feature",
      "properties": {
        "id": "CHE-03",
        "name": "化工实验中心",
        "clusterID": "G-W01-CHE-SAF",
        "x": -1090,
        "y": 108,
        "z": -190,
        "rotationY": 270,
        "mainEntranceFacing": "西",
        "statusAfter": "R7_SOLVED_CANDIDATE_PENDING_FULL_FREEZE"
      },
      "geometry": {
        "type": "Polygon",
        "coordinates": [
          [
            [
              -1064,
              -238
            ],
            [
              -1064,
              -142
            ],
            [
              -1116,
              -142
            ],
            [
              -1116,
              -238
            ],
            [
              -1064,
              -238
            ]
          ]
        ]
      }
    },
    {
      "type": "Feature",
      "properties": {
        "id": "SAF-01",
        "name": "安全学院楼",
        "clusterID": "G-W01-CHE-SAF",
        "x": -1090,
        "y": 107,
        "z": -65,
        "rotationY": 270,
        "mainEntranceFacing": "西",
        "statusAfter": "R7_SOLVED_CANDIDATE_PENDING_FULL_FREEZE"
      },
      "geometry": {
        "type": "Polygon",
        "coordinates": [
          [
            [
              -1074,
              -108
            ],
            [
              -1074,
              -22
            ],
            [
              -1106,
              -22
            ],
            [
              -1106,
              -108
            ],
            [
              -1074,
              -108
            ]
          ]
        ]
      }
    },
    {
      "type": "Feature",
      "properties": {
        "id": "SAF-02",
        "name": "安全实验中心",
        "clusterID": "G-W01-CHE-SAF",
        "x": -1145,
        "y": 106,
        "z": 45,
        "rotationY": 180,
        "mainEntranceFacing": "南",
        "statusAfter": "R7_SOLVED_CANDIDATE_PENDING_FULL_FREEZE"
      },
      "geometry": {
        "type": "Polygon",
        "coordinates": [
          [
            [
              -1104,
              23
            ],
            [
              -1104,
              67
            ],
            [
              -1186,
              67
            ],
            [
              -1186,
              23
            ],
            [
              -1104,
              23
            ]
          ]
        ]
      }
    },
    {
      "type": "Feature",
      "properties": {
        "id": "EE-01",
        "name": "电气学院楼",
        "clusterID": "G-W02-EE-EPE",
        "x": -1200,
        "y": 108,
        "z": 180,
        "rotationY": 90,
        "mainEntranceFacing": "东",
        "statusAfter": "R7_SOLVED_CANDIDATE_PENDING_FULL_FREEZE"
      },
      "geometry": {
        "type": "Polygon",
        "coordinates": [
          [
            [
              -1182,
              129
            ],
            [
              -1182,
              231
            ],
            [
              -1218,
              231
            ],
            [
              -1218,
              129
            ],
            [
              -1182,
              129
            ]
          ]
        ]
      }
    },
    {
      "type": "Feature",
      "properties": {
        "id": "EPE-01",
        "name": "能源动力A楼",
        "clusterID": "G-W02-EE-EPE",
        "x": -1200,
        "y": 109,
        "z": 320,
        "rotationY": 90,
        "mainEntranceFacing": "东",
        "statusAfter": "R7_SOLVED_CANDIDATE_PENDING_FULL_FREEZE"
      },
      "geometry": {
        "type": "Polygon",
        "coordinates": [
          [
            [
              -1182,
              269
            ],
            [
              -1182,
              371
            ],
            [
              -1218,
              371
            ],
            [
              -1218,
              269
            ],
            [
              -1182,
              269
            ]
          ]
        ]
      }
    },
    {
      "type": "Feature",
      "properties": {
        "id": "EE-02",
        "name": "电力系统实验中心",
        "clusterID": "G-W02-EE-EPE",
        "x": -1090,
        "y": 107,
        "z": 180,
        "rotationY": 270,
        "mainEntranceFacing": "西",
        "statusAfter": "R7_SOLVED_CANDIDATE_PENDING_FULL_FREEZE"
      },
      "geometry": {
        "type": "Polygon",
        "coordinates": [
          [
            [
              -1067,
              134
            ],
            [
              -1067,
              226
            ],
            [
              -1113,
              226
            ],
            [
              -1113,
              134
            ],
            [
              -1067,
              134
            ]
          ]
        ]
      }
    },
    {
      "type": "Feature",
      "properties": {
        "id": "EPE-02",
        "name": "能源动力B楼",
        "clusterID": "G-W02-EE-EPE",
        "x": -1090,
        "y": 109,
        "z": 320,
        "rotationY": 270,
        "mainEntranceFacing": "西",
        "statusAfter": "R7_SOLVED_CANDIDATE_PENDING_FULL_FREEZE"
      },
      "geometry": {
        "type": "Polygon",
        "coordinates": [
          [
            [
              -1072,
              272
            ],
            [
              -1072,
              368
            ],
            [
              -1108,
              368
            ],
            [
              -1108,
              272
            ],
            [
              -1072,
              272
            ]
          ]
        ]
      }
    },
    {
      "type": "Feature",
      "properties": {
        "id": "EPE-03",
        "name": "动力实验中心",
        "clusterID": "G-W02-EE-EPE",
        "x": -1145,
        "y": 108,
        "z": 420,
        "rotationY": 180,
        "mainEntranceFacing": "南",
        "statusAfter": "R7_SOLVED_CANDIDATE_PENDING_FULL_FREEZE"
      },
      "geometry": {
        "type": "Polygon",
        "coordinates": [
          [
            [
              -1092,
              394
            ],
            [
              -1092,
              446
            ],
            [
              -1198,
              446
            ],
            [
              -1198,
              394
            ],
            [
              -1092,
              394
            ]
          ]
        ]
      }
    },
    {
      "type": "Feature",
      "properties": {
        "id": "NUC-01",
        "name": "核科学楼",
        "clusterID": "G-W03-NUC",
        "x": -985,
        "y": 112,
        "z": 175,
        "rotationY": 90,
        "mainEntranceFacing": "东",
        "statusAfter": "R7_SOLVED_CANDIDATE_PENDING_FULL_FREEZE"
      },
      "geometry": {
        "type": "Polygon",
        "coordinates": [
          [
            [
              -967,
              129
            ],
            [
              -967,
              221
            ],
            [
              -1003,
              221
            ],
            [
              -1003,
              129
            ],
            [
              -967,
              129
            ]
          ]
        ]
      }
    },
    {
      "type": "Feature",
      "properties": {
        "id": "NUC-02",
        "name": "新能源楼",
        "clusterID": "G-W03-NUC",
        "x": -945,
        "y": 112,
        "z": 290,
        "rotationY": 270,
        "mainEntranceFacing": "西",
        "statusAfter": "R7_SOLVED_CANDIDATE_PENDING_FULL_FREEZE"
      },
      "geometry": {
        "type": "Polygon",
        "coordinates": [
          [
            [
              -927,
              242
            ],
            [
              -927,
              338
            ],
            [
              -963,
              338
            ],
            [
              -963,
              242
            ],
            [
              -927,
              242
            ]
          ]
        ]
      }
    },
    {
      "type": "Feature",
      "properties": {
        "id": "NUC-03",
        "name": "能源实验中心",
        "clusterID": "G-W03-NUC",
        "x": -995,
        "y": 111,
        "z": 405,
        "rotationY": 90,
        "mainEntranceFacing": "东",
        "statusAfter": "R7_SOLVED_CANDIDATE_PENDING_FULL_FREEZE"
      },
      "geometry": {
        "type": "Polygon",
        "coordinates": [
          [
            [
              -969,
              354
            ],
            [
              -969,
              456
            ],
            [
              -1021,
              456
            ],
            [
              -1021,
              354
            ],
            [
              -969,
              354
            ]
          ]
        ]
      }
    },
    {
      "type": "Feature",
      "properties": {
        "id": "AERO-03",
        "name": "航空航天实验中心",
        "clusterID": "G-W04-AERO",
        "x": -1150,
        "y": 113,
        "z": 520,
        "rotationY": 0,
        "mainEntranceFacing": "北",
        "statusAfter": "R7_SOLVED_CANDIDATE_PENDING_FULL_FREEZE"
      },
      "geometry": {
        "type": "Polygon",
        "coordinates": [
          [
            [
              -1090,
              492
            ],
            [
              -1090,
              548
            ],
            [
              -1210,
              548
            ],
            [
              -1210,
              492
            ],
            [
              -1090,
              492
            ]
          ]
        ]
      }
    },
    {
      "type": "Feature",
      "properties": {
        "id": "AERO-01",
        "name": "航空楼",
        "clusterID": "G-W04-AERO",
        "x": -1200,
        "y": 114,
        "z": 615,
        "rotationY": 90,
        "mainEntranceFacing": "东",
        "statusAfter": "R7_SOLVED_CANDIDATE_PENDING_FULL_FREEZE"
      },
      "geometry": {
        "type": "Polygon",
        "coordinates": [
          [
            [
              -1182,
              567
            ],
            [
              -1182,
              663
            ],
            [
              -1218,
              663
            ],
            [
              -1218,
              567
            ],
            [
              -1182,
              567
            ]
          ]
        ]
      }
    },
    {
      "type": "Feature",
      "properties": {
        "id": "AERO-02",
        "name": "航天楼",
        "clusterID": "G-W04-AERO",
        "x": -1095,
        "y": 114,
        "z": 645,
        "rotationY": 180,
        "mainEntranceFacing": "南",
        "statusAfter": "R7_SOLVED_CANDIDATE_PENDING_FULL_FREEZE"
      },
      "geometry": {
        "type": "Polygon",
        "coordinates": [
          [
            [
              -1047,
              627
            ],
            [
              -1047,
              663
            ],
            [
              -1143,
              663
            ],
            [
              -1143,
              627
            ],
            [
              -1047,
              627
            ]
          ]
        ]
      }
    },
    {
      "type": "Feature",
      "properties": {
        "id": "CSE-01",
        "name": "计算机A楼",
        "clusterID": "G-E01-DIGITAL",
        "x": -815,
        "y": 105,
        "z": -190,
        "rotationY": 0,
        "mainEntranceFacing": "北",
        "statusAfter": "R7_SOLVED_CANDIDATE_PENDING_FULL_FREEZE"
      },
      "geometry": {
        "type": "Polygon",
        "coordinates": [
          [
            [
              -759,
              -209
            ],
            [
              -759,
              -171
            ],
            [
              -871,
              -171
            ],
            [
              -871,
              -209
            ],
            [
              -759,
              -209
            ]
          ]
        ]
      }
    },
    {
      "type": "Feature",
      "properties": {
        "id": "CSE-02",
        "name": "计算机B楼",
        "clusterID": "G-E01-DIGITAL",
        "x": -680,
        "y": 105,
        "z": -190,
        "rotationY": 0,
        "mainEntranceFacing": "北",
        "statusAfter": "R7_SOLVED_CANDIDATE_PENDING_FULL_FREEZE"
      },
      "geometry": {
        "type": "Polygon",
        "coordinates": [
          [
            [
              -629,
              -208
            ],
            [
              -629,
              -172
            ],
            [
              -731,
              -172
            ],
            [
              -731,
              -208
            ],
            [
              -629,
              -208
            ]
          ]
        ]
      }
    },
    {
      "type": "Feature",
      "properties": {
        "id": "CSE-03",
        "name": "计算中心",
        "clusterID": "G-E01-DIGITAL",
        "x": -590,
        "y": 104,
        "z": -65,
        "rotationY": 270,
        "mainEntranceFacing": "西",
        "statusAfter": "R7_SOLVED_CANDIDATE_PENDING_FULL_FREEZE"
      },
      "geometry": {
        "type": "Polygon",
        "coordinates": [
          [
            [
              -567,
              -113
            ],
            [
              -567,
              -17
            ],
            [
              -613,
              -17
            ],
            [
              -613,
              -113
            ],
            [
              -567,
              -113
            ]
          ]
        ]
      }
    },
    {
      "type": "Feature",
      "properties": {
        "id": "AI-01",
        "name": "人工智能学院楼",
        "clusterID": "G-E01-DIGITAL",
        "x": -680,
        "y": 105,
        "z": 100,
        "rotationY": 180,
        "mainEntranceFacing": "南",
        "statusAfter": "R7_SOLVED_CANDIDATE_PENDING_FULL_FREEZE"
      },
      "geometry": {
        "type": "Polygon",
        "coordinates": [
          [
            [
              -632,
              82
            ],
            [
              -632,
              118
            ],
            [
              -728,
              118
            ],
            [
              -728,
              82
            ],
            [
              -632,
              82
            ]
          ]
        ]
      }
    },
    {
      "type": "Feature",
      "properties": {
        "id": "AI-02",
        "name": "AI实验中心",
        "clusterID": "G-E01-DIGITAL",
        "x": -815,
        "y": 104,
        "z": 100,
        "rotationY": 180,
        "mainEntranceFacing": "南",
        "statusAfter": "R7_SOLVED_CANDIDATE_PENDING_FULL_FREEZE"
      },
      "geometry": {
        "type": "Polygon",
        "coordinates": [
          [
            [
              -770,
              77
            ],
            [
              -770,
              123
            ],
            [
              -860,
              123
            ],
            [
              -860,
              77
            ],
            [
              -770,
              77
            ]
          ]
        ]
      }
    },
    {
      "type": "Feature",
      "properties": {
        "id": "ECE-01",
        "name": "电子学院楼",
        "clusterID": "G-E02-ICT-ECE",
        "x": -815,
        "y": 106,
        "z": 190,
        "rotationY": 0,
        "mainEntranceFacing": "北",
        "statusAfter": "R7_SOLVED_CANDIDATE_PENDING_FULL_FREEZE"
      },
      "geometry": {
        "type": "Polygon",
        "coordinates": [
          [
            [
              -767,
              172
            ],
            [
              -767,
              208
            ],
            [
              -863,
              208
            ],
            [
              -863,
              172
            ],
            [
              -767,
              172
            ]
          ]
        ]
      }
    },
    {
      "type": "Feature",
      "properties": {
        "id": "ICT-01",
        "name": "信息通信楼",
        "clusterID": "G-E02-ICT-ECE",
        "x": -690,
        "y": 107,
        "z": 190,
        "rotationY": 0,
        "mainEntranceFacing": "北",
        "statusAfter": "R7_SOLVED_CANDIDATE_PENDING_FULL_FREEZE"
      },
      "geometry": {
        "type": "Polygon",
        "coordinates": [
          [
            [
              -642,
              172
            ],
            [
              -642,
              208
            ],
            [
              -738,
              208
            ],
            [
              -738,
              172
            ],
            [
              -642,
              172
            ]
          ]
        ]
      }
    },
    {
      "type": "Feature",
      "properties": {
        "id": "ECE-02",
        "name": "微电子实验中心",
        "clusterID": "G-E02-ICT-ECE",
        "x": -815,
        "y": 105,
        "z": 300,
        "rotationY": 180,
        "mainEntranceFacing": "南",
        "statusAfter": "R7_SOLVED_CANDIDATE_PENDING_FULL_FREEZE"
      },
      "geometry": {
        "type": "Polygon",
        "coordinates": [
          [
            [
              -772,
              277
            ],
            [
              -772,
              323
            ],
            [
              -858,
              323
            ],
            [
              -858,
              277
            ],
            [
              -772,
              277
            ]
          ]
        ]
      }
    },
    {
      "type": "Feature",
      "properties": {
        "id": "ICT-02",
        "name": "通信实验中心",
        "clusterID": "G-E02-ICT-ECE",
        "x": -690,
        "y": 106,
        "z": 300,
        "rotationY": 180,
        "mainEntranceFacing": "南",
        "statusAfter": "R7_SOLVED_CANDIDATE_PENDING_FULL_FREEZE"
      },
      "geometry": {
        "type": "Polygon",
        "coordinates": [
          [
            [
              -645,
              277
            ],
            [
              -645,
              323
            ],
            [
              -735,
              323
            ],
            [
              -735,
              277
            ],
            [
              -645,
              277
            ]
          ]
        ]
      }
    },
    {
      "type": "Feature",
      "properties": {
        "id": "ME-01",
        "name": "机械A楼",
        "clusterID": "G-E03-ME-MAT",
        "x": -815,
        "y": 111,
        "z": 360,
        "rotationY": 0,
        "mainEntranceFacing": "北",
        "statusAfter": "R7_SOLVED_CANDIDATE_PENDING_FULL_FREEZE"
      },
      "geometry": {
        "type": "Polygon",
        "coordinates": [
          [
            [
              -764,
              342
            ],
            [
              -764,
              378
            ],
            [
              -866,
              378
            ],
            [
              -866,
              342
            ],
            [
              -764,
              342
            ]
          ]
        ]
      }
    },
    {
      "type": "Feature",
      "properties": {
        "id": "ME-02",
        "name": "机械B楼",
        "clusterID": "G-E03-ME-MAT",
        "x": -690,
        "y": 111,
        "z": 360,
        "rotationY": 0,
        "mainEntranceFacing": "北",
        "statusAfter": "R7_SOLVED_CANDIDATE_PENDING_FULL_FREEZE"
      },
      "geometry": {
        "type": "Polygon",
        "coordinates": [
          [
            [
              -642,
              342
            ],
            [
              -642,
              378
            ],
            [
              -738,
              378
            ],
            [
              -738,
              342
            ],
            [
              -642,
              342
            ]
          ]
        ]
      }
    },
    {
      "type": "Feature",
      "properties": {
        "id": "MAT-01",
        "name": "材料学院楼",
        "clusterID": "G-E03-ME-MAT",
        "x": -815,
        "y": 109,
        "z": 455,
        "rotationY": 180,
        "mainEntranceFacing": "南",
        "statusAfter": "R7_SOLVED_CANDIDATE_PENDING_FULL_FREEZE"
      },
      "geometry": {
        "type": "Polygon",
        "coordinates": [
          [
            [
              -769,
              438
            ],
            [
              -769,
              472
            ],
            [
              -861,
              472
            ],
            [
              -861,
              438
            ],
            [
              -769,
              438
            ]
          ]
        ]
      }
    },
    {
      "type": "Feature",
      "properties": {
        "id": "MAT-02",
        "name": "材料实验中心",
        "clusterID": "G-E03-ME-MAT",
        "x": -690,
        "y": 108,
        "z": 455,
        "rotationY": 180,
        "mainEntranceFacing": "南",
        "statusAfter": "R7_SOLVED_CANDIDATE_PENDING_FULL_FREEZE"
      },
      "geometry": {
        "type": "Polygon",
        "coordinates": [
          [
            [
              -647,
              432
            ],
            [
              -647,
              478
            ],
            [
              -733,
              478
            ],
            [
              -733,
              432
            ],
            [
              -647,
              432
            ]
          ]
        ]
      }
    },
    {
      "type": "Feature",
      "properties": {
        "id": "ME-03",
        "name": "先进制造实验楼",
        "clusterID": "G-E03-ME-MAT",
        "x": -600,
        "y": 110,
        "z": 410,
        "rotationY": 270,
        "mainEntranceFacing": "西",
        "statusAfter": "R7_SOLVED_CANDIDATE_PENDING_FULL_FREEZE"
      },
      "geometry": {
        "type": "Polygon",
        "coordinates": [
          [
            [
              -574,
              354
            ],
            [
              -574,
              466
            ],
            [
              -626,
              466
            ],
            [
              -626,
              354
            ],
            [
              -574,
              354
            ]
          ]
        ]
      }
    },
    {
      "type": "Feature",
      "properties": {
        "id": "NEE-01",
        "name": "国家卓越工程师学院",
        "clusterID": "G-E04-ENV-TRA-NEE",
        "x": -530,
        "y": 107,
        "z": 280,
        "rotationY": 90,
        "mainEntranceFacing": "东",
        "statusAfter": "R7_SOLVED_CANDIDATE_PENDING_FULL_FREEZE"
      },
      "geometry": {
        "type": "Polygon",
        "coordinates": [
          [
            [
              -510,
              229
            ],
            [
              -510,
              331
            ],
            [
              -550,
              331
            ],
            [
              -550,
              229
            ],
            [
              -510,
              229
            ]
          ]
        ]
      }
    },
    {
      "type": "Feature",
      "properties": {
        "id": "NEE-02",
        "name": "工程实践中心",
        "clusterID": "G-E04-ENV-TRA-NEE",
        "x": -386,
        "y": 106,
        "z": 280,
        "rotationY": 270,
        "mainEntranceFacing": "西",
        "statusAfter": "R7_SOLVED_CANDIDATE_PENDING_FULL_FREEZE"
      },
      "geometry": {
        "type": "Polygon",
        "coordinates": [
          [
            [
              -360,
              229
            ],
            [
              -360,
              331
            ],
            [
              -412,
              331
            ],
            [
              -412,
              229
            ],
            [
              -360,
              229
            ]
          ]
        ]
      }
    },
    {
      "type": "Feature",
      "properties": {
        "id": "ENV-01",
        "name": "环境学院楼",
        "clusterID": "G-E04-ENV-TRA-NEE",
        "x": -515,
        "y": 108,
        "z": 365,
        "rotationY": 0,
        "mainEntranceFacing": "北",
        "statusAfter": "R7_SOLVED_CANDIDATE_PENDING_FULL_FREEZE"
      },
      "geometry": {
        "type": "Polygon",
        "coordinates": [
          [
            [
              -472,
              349
            ],
            [
              -472,
              381
            ],
            [
              -558,
              381
            ],
            [
              -558,
              349
            ],
            [
              -472,
              349
            ]
          ]
        ]
      }
    },
    {
      "type": "Feature",
      "properties": {
        "id": "TRA-01",
        "name": "交通学院楼",
        "clusterID": "G-E04-ENV-TRA-NEE",
        "x": -410,
        "y": 107,
        "z": 365,
        "rotationY": 0,
        "mainEntranceFacing": "北",
        "statusAfter": "R7_SOLVED_CANDIDATE_PENDING_FULL_FREEZE"
      },
      "geometry": {
        "type": "Polygon",
        "coordinates": [
          [
            [
              -364,
              347
            ],
            [
              -364,
              383
            ],
            [
              -456,
              383
            ],
            [
              -456,
              347
            ],
            [
              -364,
              347
            ]
          ]
        ]
      }
    },
    {
      "type": "Feature",
      "properties": {
        "id": "ENV-02",
        "name": "环境实验中心",
        "clusterID": "G-E04-ENV-TRA-NEE",
        "x": -515,
        "y": 107,
        "z": 455,
        "rotationY": 180,
        "mainEntranceFacing": "南",
        "statusAfter": "R7_SOLVED_CANDIDATE_PENDING_FULL_FREEZE"
      },
      "geometry": {
        "type": "Polygon",
        "coordinates": [
          [
            [
              -476,
              434
            ],
            [
              -476,
              476
            ],
            [
              -554,
              476
            ],
            [
              -554,
              434
            ],
            [
              -476,
              434
            ]
          ]
        ]
      }
    },
    {
      "type": "Feature",
      "properties": {
        "id": "TRA-02",
        "name": "交通实验中心",
        "clusterID": "G-E04-ENV-TRA-NEE",
        "x": -410,
        "y": 106,
        "z": 455,
        "rotationY": 180,
        "mainEntranceFacing": "南",
        "statusAfter": "R7_SOLVED_CANDIDATE_PENDING_FULL_FREEZE"
      },
      "geometry": {
        "type": "Polygon",
        "coordinates": [
          [
            [
              -367,
              432
            ],
            [
              -367,
              478
            ],
            [
              -453,
              478
            ],
            [
              -453,
              432
            ],
            [
              -367,
              432
            ]
          ]
        ]
      }
    },
    {
      "type": "Feature",
      "properties": {
        "id": "CE-01",
        "name": "土木A楼",
        "clusterID": "G-N01-CE-ARC",
        "x": -665,
        "y": 112,
        "z": 545,
        "rotationY": 0,
        "mainEntranceFacing": "北",
        "statusAfter": "R7_SOLVED_CANDIDATE_PENDING_FULL_FREEZE"
      },
      "geometry": {
        "type": "Polygon",
        "coordinates": [
          [
            [
              -615,
              527
            ],
            [
              -615,
              563
            ],
            [
              -715,
              563
            ],
            [
              -715,
              527
            ],
            [
              -615,
              527
            ]
          ]
        ]
      }
    },
    {
      "type": "Feature",
      "properties": {
        "id": "ARC-01",
        "name": "建筑学院A馆",
        "clusterID": "G-N01-CE-ARC",
        "x": -550,
        "y": 110,
        "z": 545,
        "rotationY": 0,
        "mainEntranceFacing": "北",
        "statusAfter": "R7_SOLVED_CANDIDATE_PENDING_FULL_FREEZE"
      },
      "geometry": {
        "type": "Polygon",
        "coordinates": [
          [
            [
              -502,
              528
            ],
            [
              -502,
              562
            ],
            [
              -598,
              562
            ],
            [
              -598,
              528
            ],
            [
              -502,
              528
            ]
          ]
        ]
      }
    },
    {
      "type": "Feature",
      "properties": {
        "id": "CE-03",
        "name": "水利工程实验中心",
        "clusterID": "G-N01-CE-ARC",
        "x": -435,
        "y": 111,
        "z": 545,
        "rotationY": 0,
        "mainEntranceFacing": "北",
        "statusAfter": "R7_SOLVED_CANDIDATE_PENDING_FULL_FREEZE"
      },
      "geometry": {
        "type": "Polygon",
        "coordinates": [
          [
            [
              -389,
              522
            ],
            [
              -389,
              568
            ],
            [
              -481,
              568
            ],
            [
              -481,
              522
            ],
            [
              -389,
              522
            ]
          ]
        ]
      }
    },
    {
      "type": "Feature",
      "properties": {
        "id": "CE-02",
        "name": "土木B楼",
        "clusterID": "G-N01-CE-ARC",
        "x": -665,
        "y": 112,
        "z": 640,
        "rotationY": 180,
        "mainEntranceFacing": "南",
        "statusAfter": "R7_SOLVED_CANDIDATE_PENDING_FULL_FREEZE"
      },
      "geometry": {
        "type": "Polygon",
        "coordinates": [
          [
            [
              -619,
              623
            ],
            [
              -619,
              657
            ],
            [
              -711,
              657
            ],
            [
              -711,
              623
            ],
            [
              -619,
              623
            ]
          ]
        ]
      }
    },
    {
      "type": "Feature",
      "properties": {
        "id": "ARC-02",
        "name": "建筑学院B馆",
        "clusterID": "G-N01-CE-ARC",
        "x": -550,
        "y": 110,
        "z": 640,
        "rotationY": 180,
        "mainEntranceFacing": "南",
        "statusAfter": "R7_SOLVED_CANDIDATE_PENDING_FULL_FREEZE"
      },
      "geometry": {
        "type": "Polygon",
        "coordinates": [
          [
            [
              -509,
              625
            ],
            [
              -509,
              655
            ],
            [
              -591,
              655
            ],
            [
              -591,
              625
            ],
            [
              -509,
              625
            ]
          ]
        ]
      }
    },
    {
      "type": "Feature",
      "properties": {
        "id": "ARC-03",
        "name": "设计与模型实验中心",
        "clusterID": "G-N01-CE-ARC",
        "x": -435,
        "y": 109,
        "z": 640,
        "rotationY": 180,
        "mainEntranceFacing": "南",
        "statusAfter": "R7_SOLVED_CANDIDATE_PENDING_FULL_FREEZE"
      },
      "geometry": {
        "type": "Polygon",
        "coordinates": [
          [
            [
              -399,
              619
            ],
            [
              -399,
              661
            ],
            [
              -471,
              661
            ],
            [
              -471,
              619
            ],
            [
              -399,
              619
            ]
          ]
        ]
      }
    },
    {
      "type": "Feature",
      "properties": {
        "id": "G-W01-CHE-SAF",
        "name": "化工—安全工程共享院落",
        "featureType": "clusterOpenSpaceControl",
        "status": "SOLVER_CONTROL_NOT_PERMANENT_POI"
      },
      "geometry": {
        "type": "Point",
        "coordinates": [
          -1145,
          -75
        ]
      }
    },
    {
      "type": "Feature",
      "properties": {
        "id": "G-W02-EE-EPE",
        "name": "电气—能源动力工程共享院落",
        "featureType": "clusterOpenSpaceControl",
        "status": "SOLVER_CONTROL_NOT_PERMANENT_POI"
      },
      "geometry": {
        "type": "Point",
        "coordinates": [
          -1145,
          285
        ]
      }
    },
    {
      "type": "Feature",
      "properties": {
        "id": "G-W03-NUC",
        "name": "核科学与新能源线性绿脊组团",
        "featureType": "clusterOpenSpaceControl",
        "status": "SOLVER_CONTROL_NOT_PERMANENT_POI"
      },
      "geometry": {
        "type": "Point",
        "coordinates": [
          -970,
          290
        ]
      }
    },
    {
      "type": "Feature",
      "properties": {
        "id": "G-W04-AERO",
        "name": "航空航天—匠心池西北组团",
        "featureType": "clusterOpenSpaceControl",
        "status": "SOLVER_CONTROL_NOT_PERMANENT_POI"
      },
      "geometry": {
        "type": "Point",
        "coordinates": [
          -1135,
          595
        ]
      }
    },
    {
      "type": "Feature",
      "properties": {
        "id": "G-E01-DIGITAL",
        "name": "计算机—人工智能数字水庭组团",
        "featureType": "clusterOpenSpaceControl",
        "status": "SOLVER_CONTROL_NOT_PERMANENT_POI"
      },
      "geometry": {
        "type": "Point",
        "coordinates": [
          -760,
          -20
        ]
      }
    },
    {
      "type": "Feature",
      "properties": {
        "id": "G-E02-ICT-ECE",
        "name": "电子—信息通信共享庭院",
        "featureType": "clusterOpenSpaceControl",
        "status": "SOLVER_CONTROL_NOT_PERMANENT_POI"
      },
      "geometry": {
        "type": "Point",
        "coordinates": [
          -752,
          245
        ]
      }
    },
    {
      "type": "Feature",
      "properties": {
        "id": "G-E03-ME-MAT",
        "name": "机械—材料工程共享院落",
        "featureType": "clusterOpenSpaceControl",
        "status": "SOLVER_CONTROL_NOT_PERMANENT_POI"
      },
      "geometry": {
        "type": "Point",
        "coordinates": [
          -720,
          410
        ]
      }
    },
    {
      "type": "Feature",
      "properties": {
        "id": "G-E04-ENV-TRA-NEE",
        "name": "环境—交通—卓越工程师协同片区",
        "featureType": "clusterOpenSpaceControl",
        "status": "SOLVER_CONTROL_NOT_PERMANENT_POI"
      },
      "geometry": {
        "type": "Point",
        "coordinates": [
          -455,
          365
        ]
      }
    },
    {
      "type": "Feature",
      "properties": {
        "id": "G-N01-CE-ARC",
        "name": "土木—建筑学院北侧共享庭院",
        "featureType": "clusterOpenSpaceControl",
        "status": "SOLVER_CONTROL_NOT_PERMANENT_POI"
      },
      "geometry": {
        "type": "Point",
        "coordinates": [
          -550,
          592
        ]
      }
    }
  ]
}